GSAT0222 (PRN E33)      
1 43565U 18060B   22203.29663098 -.00000087  00000+0  00000+0 0  9994
2 43565  57.1897  20.2421 0001036 306.0835  53.9330  1.70475931 24903
GSAT0219 (PRN E36)      
1 43566U 18060C   22203.51717906 -.00000086  00000+0  00000+0 0  9997
2 43566  57.1904  20.2382 0000704 314.3028  45.7177  1.70475958 24880
GSAT0220 (PRN E13)      
1 43567U 18060D   22201.97756075 -.00000089  00000+0  00000+0 0  9999
2 43567  57.1897  20.2793 0000801 296.2420  63.7743  1.70475830 24844
BEIDOU-3 M9 (C23)       
1 43581U 18062A   22203.57563639  .00000078  00000+0  00000+0 0  9994
2 43581  54.2673 230.8830 0005532 266.9955 145.4449  1.86231940 27083
BEIDOU-3 M10 (C24)      
1 43582U 18062B   22204.43055144  .00000084  00000+0  00000+0 0  9995
2 43582  54.2663 230.8422 0004450 338.0778  19.3498  1.86232213 27090
BEIDOU-3 M11 (C25)      
1 43602U 18067A   22204.10893126  .00000084  00000+0  00000+0 0  9997
2 43602  54.3489 229.4713 0006528   0.3537 182.8009  1.86231687 26588
BEIDOU-3 M12 (C26)      
1 43603U 18067B   22204.24282924  .00000085  00000+0  00000+0 0  9992
2 43603  54.3456 229.4333 0003956 341.9452 201.3482  1.86231613 26607
BEIDOU-3 M13 (C32)      
1 43622U 18072A   22203.80903270 -.00000070  00000+0  00000+0 0  9999
2 43622  55.4986 110.1667 0007068 296.1861 345.4483  1.86231846 26101
BEIDOU-3 M14 (C33)      
1 43623U 18072B   22204.49768679 -.00000072  00000+0  00000+0 0  9990
2 43623  55.5009 110.1356 0005554 320.6273 152.9574  1.86231855 26126
BEIDOU-3 M15 (C34)      
1 43647U 18078A   22203.41686701 -.00000115  00000+0  10000-3 0  9991
2 43647  55.1124 349.3960 0006135  16.9827 347.5468  1.86232871 25615
BEIDOU-3 M16 (C35)      
1 43648U 18078B   22203.62261161 -.00000115  00000+0  00000+0 0  9999
2 43648  55.1080 349.3950 0004137  33.6573  16.5312  1.86232155 25638
BEIDOU-3 G1 (C59)       
1 43683U 18085A   22204.48051104 -.00000277  00000+0  00000+0 0  9994
2 43683   0.9265 160.0931 0004391  10.2735  83.8494  1.00270067 13770
COSMOS 2529 (757)       
1 43687U 18086A   22203.70237568  .00000070  00000+0  00000+0 0  9993
2 43687  64.3601 240.9534 0011613 262.7844 196.8837  2.13102098 28910
BEIDOU-3 M17 (C36)      
1 43706U 18093A   22204.23581581  .00000083  00000+0  00000+0 0  9993
2 43706  54.3492 230.7466 0011179 271.6117  88.3246  1.86232117 25000
BEIDOU-3 M18 (C37)      
1 43707U 18093B   22203.70251852  .00000079  00000+0  00000+0 0  9995
2 43707  54.3497 230.7563 0008923 293.2709 160.3590  1.86232223 24981
GPS BIII-1  (PRN 04)    
1 43873U 18109A   22204.26336153 -.00000008  00000+0  00000+0 0  9990
2 43873  55.0964 148.4816 0019483 195.0674 306.1878  2.00573255 26498
BEIDOU-3 IGSO-1 (C38)   
1 44204U 19023A   22203.60787435 -.00000222  00000+0  00000+0 0  9993
2 44204  56.6076  52.5930 0022320 188.2593  34.9020  1.00299251 12061
BEIDOU-2 G8             
1 44231U 19027A   22203.34282821 -.00000248  00000+0  00000+0 0  9995
2 44231   0.9441  77.6163 0005111 104.7470  25.6402  1.00272842 11776
COSMOS 2534 (758)       
1 44299U 19030A   22204.32304946  .00000077  00000+0  00000+0 0  9994
2 44299  64.4317 240.8207 0013645 281.5909  68.7957  2.13102043 24566
BEIDOU-3 IGSO-2 (C39)   
1 44337U 19035A   22204.56608372 -.00000098  00000+0  00000+0 0  9992
2 44337  55.1277 171.4028 0025936 194.5373 256.6274  1.00293805 11417
GPS BIII-2  (PRN 18)    
1 44506U 19056A   22204.02352993 -.00000086  00000+0  00000+0 0  9996
2 44506  55.6961  27.6329 0025762 177.8269  50.0393  2.00557898 21483
BEIDOU-3 M23 (C45)      
1 44542U 19061A   22204.17185091  .00000083  00000+0  00000+0 0  9997
2 44542  54.5758 230.8980 0008368 323.9715  36.0368  1.86231452 19255
BEIDOU-3 M24 (C46)      
1 44543U 19061B   22204.29836142  .00000084  00000+0  00000+0 0  9992
2 44543  54.5731 230.8635 0005855 307.4450  48.7397  1.86231727 19241
BEIDOU-3 IGSO-3         
1 44709U 19073A   22204.61576538 -.00000202  00000+0  10000-3 0  9993
2 44709  57.2069 296.0114 0027259 177.8206 166.3524  1.00297343 10157
BEIDOU-3 M21            
1 44793U 19078A   22204.50839735 -.00000116  00000+0  10000-3 0  9994
2 44793  54.9614 349.3767 0006108  23.5134 306.6668  1.86232267 18113
BEIDOU-3 M22            
1 44794U 19078B   22203.79576934 -.00000116  00000+0  00000+0 0  9999
2 44794  54.9335 349.3916 0003884  24.3564  99.7674  1.86232725 18109
COSMOS 2544 (759)       
1 44850U 19088A   22204.49097267 -.00000046  00000+0  16595+1 0  9997
2 44850  64.9606 121.4828 0012835 261.2822 203.3764  2.13102250 20342
BEIDOU-3 M19            
1 44864U 19090A   22203.59680955 -.00000069  00000+0  00000+0 0  9995
2 44864  55.4329 110.3834 0017336 274.1619 271.0120  1.86232002 17685
BEIDOU-3 M20            
1 44865U 19090B   22204.45968451 -.00000072  00000+0  00000+0 0  9996
2 44865  55.4352 110.3864 0015677 288.2462 205.3050  1.86231922 17674
BEIDOU-3 G2             
1 45344U 20017A   22204.46854081 -.00000138  00000+0  00000+0 0  9997
2 45344   2.0437 353.8533 0004910 127.3549  68.6784  1.00273333  8978
COSMOS 2545 (760)       
1 45358U 20018A   22204.52987914 -.00000074  00000+0  00000+0 0  9991
2 45358  64.9173   2.0524 0006891 237.2630 106.6813  2.13102723 18293
BEIDOU-3 G3             
1 45807U 20040A   22204.47458140 -.00000350  00000+0  00000+0 0  9990
2 45807   1.3604 304.1982 0006870 328.4649 309.9124  1.00269663  7787
GPS BIII-3  (PRN 23)    
1 45854U 20041A   22204.52155021 -.00000076  00000+0  00000+0 0  9996
2 45854  55.5482  84.8830 0023710 176.6798 347.1783  2.00558719 15461
GALAXY 30 (WAAS/PRN 135)
1 46114U 20056C   22204.52809738  .00000039  00000+0  00000+0 0  9991
2 46114   0.0264  63.6497 0001658  62.9254 239.7826  1.00272759  7000
GPS BIII-4  (PRN 14)    
1 46826U 20078A   22204.56477184  .00000002  00000+0  00000+0 0  9995
2 46826  54.5426 268.6305 0021778 189.2637 341.7097  2.00565167 12933
GPS BIII-5  (PRN 11)    
1 48859U 21054A   22204.57748595 -.00000084  00000+0  00000+0 0  9997
2 48859  55.2031  29.5932 0005701 189.5628 174.9260  2.00571802  8185
